; visualization seed added by RecordingTransport
G90
M82
G92 X0 Y0 Z0 E0
G1 X0.10 Y0.00 E0.10 F600
G90
G0 Z80.5000 F3000.00
G90
G0 X150.0000 F6000.00
G90
G0 Y150.0000 F6000.00
G90
G0 Z72.0000 F3000.00
G91
G0 Z40.0000 F6000.00
G91
G0 X0.0000 Y41.0000 F6000.00
G90
G0 X150.0000 F6000.00
G90
G0 Y150.0000 F6000.00
G90
G0 Z72.0000 F3000.00
G90
G0 X152.8335 F6000.00
G90
G0 Y166.9013 F6000.00
G90
G0 Z66.7220 F500.00
G90
G0 Z61.7220 F100.00
G90
G0 X157.8330 F500.00
G90
G0 Y166.9010 F500.00
G90
G0 Z80.5000 F3000.00
