; visualization seed added by RecordingTransport
G90
M82
G92 X0 Y0 Z0 E0
G1 X0.10 Y0.00 E0.10 F600
G90
G0 Z280.0000 F6000.00
G90
G0 X110.0000 Y80.0000 F6000.00
G91
G0 Y30.0000 F6000.00
G91
G0 Y30.0000 F6000.00
G91
G0 Y30.0000 F6000.00
G91
G0 Y30.0000 F6000.00
G91
G0 X35.0000 F6000.00
G91
G0 Y-30.0000 F6000.00
G91
G0 Y-30.0000 F6000.00
G91
G0 Y-30.0000 F6000.00
G91
G0 Y-30.0000 F6000.00
G91
G0 X35.0000 F6000.00
G91
G0 Y30.0000 F6000.00
G91
G0 Y30.0000 F6000.00
G91
G0 Y30.0000 F6000.00
G91
G0 Y30.0000 F6000.00
G91
G0 X35.0000 F6000.00
G91
G0 Y-30.0000 F6000.00
G91
G0 Y-30.0000 F6000.00
G91
G0 Y-30.0000 F6000.00
G91
G0 Y-30.0000 F6000.00
G91
G0 X35.0000 F6000.00
G91
G0 Y30.0000 F6000.00
G91
G0 Y30.0000 F6000.00
G91
G0 Y30.0000 F6000.00
G91
G0 Y30.0000 F6000.00
G90
G0 Z260.0000 F6000.00
G90
G0 X110.0000 Y80.0000 F6000.00
G91
G0 Y30.0000 F6000.00
G91
G0 Y30.0000 F6000.00
G91
G0 Y30.0000 F6000.00
G91
G0 Y30.0000 F6000.00
G91
G0 X35.0000 F6000.00
G91
G0 Y-30.0000 F6000.00
G91
G0 Y-30.0000 F6000.00
G91
G0 Y-30.0000 F6000.00
G91
G0 Y-30.0000 F6000.00
G91
G0 X35.0000 F6000.00
G91
G0 Y30.0000 F6000.00
G91
G0 Y30.0000 F6000.00
G91
G0 Y30.0000 F6000.00
G91
G0 Y30.0000 F6000.00
G91
G0 X35.0000 F6000.00
G91
G0 Y-30.0000 F6000.00
G91
G0 Y-30.0000 F6000.00
G91
G0 Y-30.0000 F6000.00
G91
G0 Y-30.0000 F6000.00
G91
G0 X35.0000 F6000.00
G91
G0 Y30.0000 F6000.00
G91
G0 Y30.0000 F6000.00
G91
G0 Y30.0000 F6000.00
G91
G0 Y30.0000 F6000.00
G90
G0 Z240.0000 F6000.00
G90
G0 X110.0000 Y80.0000 F6000.00
G91
G0 Y30.0000 F6000.00
G91
G0 Y30.0000 F6000.00
G91
G0 Y30.0000 F6000.00
G91
G0 Y30.0000 F6000.00
G91
G0 X35.0000 F6000.00
G91
G0 Y-30.0000 F6000.00
G91
G0 Y-30.0000 F6000.00
G91
G0 Y-30.0000 F6000.00
G91
G0 Y-30.0000 F6000.00
G91
G0 X35.0000 F6000.00
G91
G0 Y30.0000 F6000.00
G91
G0 Y30.0000 F6000.00
G91
G0 Y30.0000 F6000.00
G91
G0 Y30.0000 F6000.00
G91
G0 X35.0000 F6000.00
G91
G0 Y-30.0000 F6000.00
G91
G0 Y-30.0000 F6000.00
G91
G0 Y-30.0000 F6000.00
G91
G0 Y-30.0000 F6000.00
G91
G0 X35.0000 F6000.00
G91
G0 Y30.0000 F6000.00
G91
G0 Y30.0000 F6000.00
G91
G0 Y30.0000 F6000.00
G91
G0 Y30.0000 F6000.00
G90
G0 Z220.0000 F6000.00
G90
G0 X110.0000 Y80.0000 F6000.00
G91
G0 Y30.0000 F6000.00
G91
G0 Y30.0000 F6000.00
G91
G0 Y30.0000 F6000.00
G91
G0 Y30.0000 F6000.00
G91
G0 X35.0000 F6000.00
G91
G0 Y-30.0000 F6000.00
G91
G0 Y-30.0000 F6000.00
G91
G0 Y-30.0000 F6000.00
G91
G0 Y-30.0000 F6000.00
G91
G0 X35.0000 F6000.00
G91
G0 Y30.0000 F6000.00
G91
G0 Y30.0000 F6000.00
G91
G0 Y30.0000 F6000.00
G91
G0 Y30.0000 F6000.00
G91
G0 X35.0000 F6000.00
G91
G0 Y-30.0000 F6000.00
G91
G0 Y-30.0000 F6000.00
G91
G0 Y-30.0000 F6000.00
G91
G0 Y-30.0000 F6000.00
G91
G0 X35.0000 F6000.00
G91
G0 Y30.0000 F6000.00
G91
G0 Y30.0000 F6000.00
G91
G0 Y30.0000 F6000.00
G91
G0 Y30.0000 F6000.00
